CAS-2T & KS-1Q          
1 41847U 16066G   20199.47380800  .00000056  00000-0  18152-4 0  9996
2 41847  98.6517 250.2902 0366509 139.3571 223.5599 14.38077996193732
NAYIF-1 (EO-88)         
1 42017U 17008BX  20199.43995573  .00001055  00000-0  43093-4 0  9990
2 42017  97.3584 266.5637 0005431 200.7135 159.3884 15.26565432190128
MAX VALIER SAT          
1 42778U 17036P   20199.17800593  .00000628  00000-0  29913-4 0  9993
2 42778  97.3028 251.9892 0010377 278.8957  81.1105 15.22662979170259
RADFXSAT (FOX-1B)       
1 43017U 17073E   20199.49618302  .00000328  00000-0  31475-4 0  9994
2 43017  97.7214 110.5727 0255808 312.7473  45.2462 14.78971553143602
FOX-1D (AO-92)          
1 43137U 18004AC  20199.48729408  .00000651  00000-0  29695-4 0  9991
2 43137  97.4446 270.4439 0007872 318.3218  41.7419 15.24169474139623
DIWATA-2B               
1 43678U 18084H   20199.59397686 -.00000169  00000-0 -11054-4 0  9996
2 43678  97.8878 318.0009 0011416  78.3490 281.8990 14.91637950 93512
ES'HAIL 2               
1 43700U 18090A   20199.22549640  .00000153  00000-0  00000-0 0  9994
2 43700   0.0236  47.4143 0001196 106.2572 248.8177  1.00268231  6006
FOX-1CLIFF (AO-95)      
1 43770U 18099N   20199.42685675  .00000301  00000-0  32694-4 0  9994
2 43770  97.7048 270.2835 0016229  96.7345 263.5723 14.95007769 88393
ITASAT 1                
1 43786U 18099AE  20199.08243692  .00000583  00000-0  57957-4 0  9993
2 43786  97.7063 270.3859 0016865  92.2491 268.0661 14.95343089 88369
JY1SAT (JO-97)          
1 43803U 18099AX  20199.16034622  .00000364  00000-0  37946-4 0  9996
2 43803  97.7024 270.2743 0016853  92.0710 268.2441 14.95524834 88374
PSAT2 (NO-104)          
1 44354U 19036R   20199.32408582  .00007275  00000-0  10312-3 0  9993
2 44354  28.5311 184.3836 0362675 270.1036  85.8006 15.03841407 58310
BRICSAT2 (NO-103)       
1 44355U 19036S   20199.28916114  .00014403  00000-0  19855-3 0  9996
2 44355  28.5308 174.3237 0340150 286.4575  69.8901 15.09532916 58429
JAISAT-1                
1 44419U 19038F   20199.12187319  .00000637  00000-0  39848-4 0  9998
2 44419  97.5404 160.3731 0022565  32.3444 327.9164 15.12819211 57087
DUCHIFAT-3              
1 44854U 19089C   20199.60114514  .00000166  00000-0  19859-4 0  9994
2 44854  36.9689 280.1862 0009745 307.4914  52.4973 14.99084367 32824
RS-44 & BREEZE-KM R/B   
1 44909U 19096E   20199.38093978  .00000013  00000-0  28789-5 0  9992
2 44909  82.5230 335.4247 0217950 156.2901 204.8430 12.79708254 26019
ORBITAL FACTORY 2 (OF-2)
1 45113U 19071C   20199.33299715  .00001063  00000-0  43913-4 0  9996
2 45113  51.6429 219.1992 0013059 163.2318 196.9098 15.33435687 25710
HUSKYSAT-1              
1 45119U 19071J   20199.37240247  .00000661  00000-0  31519-4 0  9994
2 45119  51.6424 218.7131 0012385 159.8879 200.2593 15.33645745 25712
